[{"OBJECT_NAME":"KUIPER-00137","OBJECT_ID":"2025-228S","EPOCH":"2026-03-09T22:00:01.999584","MEAN_MOTION":14.78448948,"ECCENTRICITY":0.00017475,"INCLINATION":51.9044,"RA_OF_ASC_NODE":344.5648,"ARG_OF_PERICENTER":152.1073,"MEAN_ANOMALY":242.2792,"EPHEMERIS_TYPE":0,"CLASSIFICATION_TYPE":"U","NORAD_CAT_ID":65963,"ELEMENT_SET_NO":999,"REV_AT_EPOCH":474,"BSTAR":-0.0032569559,"MEAN_MOTION_DOT":-0.00024103,"MEAN_MOTION_DDOT":0},{"OBJECT_NAME":"ALSAT-1","OBJECT_ID":"2002-054A","EPOCH":"2026-03-09T23:09:33.387264","MEAN_MOTION":14.7801747,"ECCENTRICITY":0.00188285,"INCLINATION":98.2462,"RA_OF_ASC_NODE":251.2442,"ARG_OF_PERICENTER":237.1457,"MEAN_ANOMALY":122.7941,"EPHEMERIS_TYPE":0,"CLASSIFICATION_TYPE":"U","NORAD_CAT_ID":27559,"ELEMENT_SET_NO":999,"REV_AT_EPOCH":24859,"BSTAR":0.00020035968,"MEAN_MOTION_DOT":1.395e-5,"MEAN_MOTION_DDOT":0}]
